GLOBALSTAR M075         
1 37192U 10054E   25338.33785940 -.00000088  00000+0  88991-4 0  9997
2 37192  51.9967  23.4643 0000396 114.4758 341.9174 12.62270087697333
GLOBALSTAR M073         
1 37193U 10054F   25338.16166439 -.00000097  00000+0  38311-4 0  9996
2 37193  52.0072 297.9534 0000536  28.4967 344.8244 12.62264778699301
GLOBALSTAR M083         
1 37739U 11033A   25338.12530281 -.00000070  00000+0  18607-3 0  9992
2 37739  51.9854 246.5598 0000720  52.0931  97.8597 12.62265156668316
GLOBALSTAR M088         
1 37740U 11033B   25338.26213812 -.00000091  00000+0  69659-4 0  9994
2 37740  52.0187 152.0972 0001123  99.3097  71.8792 12.62270903663872
GLOBALSTAR M091         
1 37741U 11033C   25338.11719839 -.00000102  00000+0  12473-4 0  9994
2 37741  51.9986 115.7921 0000859 119.4692  52.2308 12.62262381664641
GLOBALSTAR M085         
1 37742U 11033D   25338.31268340 -.00000104  00000+0  59232-6 0  9991
2 37742  52.0141  66.3181 0000568 142.7389 258.3419 12.62267036665189
GLOBALSTAR M081         
1 37743U 11033E   25338.25677779 -.00000117  00000+0 -73738-4 0  9995
2 37743  51.9967  69.1448 0000512 120.5537 266.8213 12.62270558665324
GLOBALSTAR M089         
1 37744U 11033F   25338.30744549 -.00000082  00000+0  12267-3 0  9991
2 37744  51.9953  23.1871 0000550  83.6826 354.8761 12.62261818666171
